OBJECT_NAME,OBJECT_ID,EPOCH,MEAN_MOTION,ECCENTRICITY,INCLINATION,RA_OF_ASC_NODE,ARG_OF_PERICENTER,MEAN_ANOMALY,EPHEMERIS_TYPE,CLASSIFICATION_TYPE,NORAD_CAT_ID,ELEMENT_SET_NO,REV_AT_EPOCH,BSTAR,MEAN_MOTION_DOT,MEAN_MOTION_DDOT
STARLINK-31427,2024-049L,2026-06-14T03:28:02.868096,15.27570699,.0001824,43.0112,319.1239,266.1105,93.9538,0,U,59241,999,12715,-.58343E-4,-.1867E-4,0
STARLINK-31423,2024-049M,2026-06-13T03:46:27.568128,15.27576279,.00001068,43.0006,324.6371,117.9142,242.1721,0,U,59242,999,12700,.9214144E-5,-.8E-7,0
STARLINK-31433,2024-049N,2026-06-14T02:41:48.507072,15.27572251,.0000677,43.0053,318.9131,270.5471,89.5303,0,U,59243,999,12715,-.10727E-5,-.291E-5,0
STARLINK-31285,2024-049P,2026-06-13T16:54:39.078144,15.27578302,.00012064,42.9999,321.0076,253.7111,106.3608,0,U,59244,999,12708,.24539129E-4,.413E-5,0
STARLINK-31284,2024-049R,2026-06-13T17:11:18.103200,15.27579955,.00013457,42.9993,321.0975,267.7923,92.2775,0,U,59246,999,12708,.27753836E-4,.502E-5,0
STARLINK-31424,2024-049S,2026-06-14T02:49:53.635296,15.27575425,.000122,42.9988,315.4822,279.1524,80.9189,0,U,59247,999,12718,-.43149E-6,-.274E-5,0
STARLINK-31405,2024-049T,2026-06-14T03:07:41.610144,15.27576954,.000118,42.9978,319.0384,270.0425,90.0292,0,U,59248,999,12714,-.33527E-4,-.1184E-4,0
STARLINK-31426,2024-049U,2026-06-13T03:40:53.814432,15.27575820,.00009571,43.0084,324.6027,291.0507,69.0242,0,U,59249,999,12699,.32704484E-4,.638E-5,0
STARLINK-31407,2024-049V,2026-06-14T02:52:56.209728,15.27573721,.0000303,42.9986,307.7183,220.1926,139.8903,0,U,59250,999,12727,.17026E-4,.207E-5,0
STARLINK-31393,2024-049X,2026-06-13T20:51:48.483360,15.27571504,.0000799,42.9999,305.8066,283.7698,76.3065,0,U,59252,999,12728,.24498E-4,.412E-5,0
STARLINK-31425,2024-049Y,2026-06-13T17:05:45.437280,15.27575423,.00010297,43.0139,321.0709,273.0449,87.0285,0,U,59253,999,12708,-.4171948E-5,-.377E-5,0
STARLINK-31659,2024-050A,2026-06-14T01:17:46.958208,15.34406719,.0002135,53.1623,89.7592,135.5468,224.5706,0,U,59254,999,12650,-.18259E-3,-.6542E-4,0
STARLINK-31629,2024-050B,2026-06-14T01:34:34.000320,15.30195645,.000134,53.1604,93.3735,93.2150,266.9004,0,U,59255,999,12530,.2309E-4,.325E-5,0
STARLINK-31652,2024-050C,2026-06-14T02:43:12.323712,15.31699153,.0000999,53.1613,92.9660,112.0486,248.0621,0,U,59256,999,12531,-.29188E-4,-.1271E-4,0
STARLINK-31637,2024-050E,2026-06-14T02:41:15.923904,15.30180281,.0001391,53.1599,92.9564,95.7673,264.3486,0,U,59258,999,12531,.43629E-4,.932E-5,0
STARLINK-31506,2024-050F,2026-06-14T01:30:00.969408,15.30185030,.0001595,53.1618,93.3558,93.2517,266.8666,0,U,59259,999,12530,-.28399E-4,-.12E-4,0
STARLINK-31639,2024-050H,2026-06-14T02:36:30.816864,15.31659243,.0001123,53.1619,92.9352,93.6215,266.4915,0,U,59261,999,12531,-.28004E-4,-.1233E-4,0
STARLINK-31598,2024-050K,2026-06-14T02:00:49.974336,15.34116510,.000104,53.1609,93.4691,94.7676,265.3445,0,U,59263,999,12530,.16652E-2,.55799E-3,0
STARLINK-31645,2024-050L,2026-06-14T01:45:12.157632,15.30187990,.000118,53.1593,93.4219,80.2672,279.8462,0,U,59264,999,12530,.70606E-3,.20603E-3,0
STARLINK-31646,2024-050M,2026-06-14T01:54:19.377216,15.30193637,.0001346,53.1602,93.4567,85.3515,274.7639,0,U,59265,999,12530,-.3134E-5,-.452E-5,0
STARLINK-31648,2024-050N,2026-06-14T02:54:56.070720,15.30180563,.0001248,53.1601,93.0169,74.1982,285.9156,0,U,59266,999,12531,.74605E-4,.185E-4,0
STARLINK-31579,2024-050P,2026-06-14T01:40:38.133120,15.30203712,.000129,53.1601,93.4003,65.8249,294.2886,0,U,59267,999,12530,-.14887E-3,-.4766E-4,0
STARLINK-31627,2024-050Q,2026-06-14T02:09:27.900864,15.33407303,.0000673,53.1596,93.5228,82.1473,277.9605,0,U,59268,999,12530,.72004E-2,.243179E-2,0
STARLINK-31609,2024-050R,2026-06-14T01:49:45.693984,15.30194242,.0001306,53.1586,93.4379,101.4849,258.6298,0,U,59269,999,12530,.89848E-4,.2302E-4,0
STARLINK-31616,2024-050S,2026-06-14T01:56:20.721696,15.32322008,.0001598,53.1595,93.4631,99.8559,260.2623,0,U,59270,999,12530,.12083E-1,.403293E-2,0
STARLINK-31630,2024-050T,2026-06-14T01:05:33.766944,15.34390976,.0001315,53.1618,79.7498,95.8231,264.2922,0,U,59271,999,12549,.21641E-4,.355E-5,0
STARLINK-31623,2024-050U,2026-06-14T02:18:28.866816,15.30187631,.0001561,53.1612,92.8644,105.2759,254.8414,0,U,59272,999,12531,-.20914E-4,-.978E-5,0
STARLINK-31595,2024-050V,2026-06-14T02:59:30.402816,15.30190349,.0001328,53.1604,93.0463,98.2177,261.8974,0,U,59273,999,12531,-.82012E-5,-.602E-5,0
STARLINK-31463,2024-056A,2026-06-13T23:05:28.178016,15.27572760,.0001596,42.9992,43.0695,270.9661,89.1008,0,U,59296,999,12592,.2092E-4,.313E-5,0
STARLINK-31487,2024-056B,2026-06-13T22:48:20.024064,15.27569110,.0001009,42.9839,47.2833,245.7173,114.3573,0,U,59297,999,12599,-.32028E-4,-.1142E-4,0
