STARLINK-31427          
1 59241U 24049L   26165.14447764 -.00001867  00000+0 -58343-4 0  9997
2 59241  43.0112 319.1239 0001824 266.1105  93.9538 15.27570699127152
STARLINK-31423          
1 59242U 24049M   26164.15726352 -.00000008  00000+0  92141-5 0  9991
2 59242  43.0006 324.6371 0000106 117.9142 242.1721 15.27576279127005
STARLINK-31433          
1 59243U 24049N   26165.11236698 -.00000291  00000+0 -10727-5 0  9993
2 59243  43.0053 318.9131 0000677 270.5471  89.5303 15.27572251127153
STARLINK-31285          
1 59244U 24049P   26164.70461896  .00000413  00000+0  24539-4 0  9997
2 59244  42.9999 321.0076 0001206 253.7111 106.3608 15.27578302127088
STARLINK-31284          
1 59246U 24049R   26164.71618175  .00000502  00000+0  27754-4 0  9995
2 59246  42.9993 321.0975 0001345 267.7923  92.2775 15.27579955127085
STARLINK-31424          
1 59247U 24049S   26165.11798189 -.00000274  00000+0 -43149-6 0  9991
2 59247  42.9988 315.4822 0001220 279.1524  80.9189 15.27575425127186
STARLINK-31405          
1 59248U 24049T   26165.13034271 -.00001184  00000+0 -33527-4 0  9997
2 59248  42.9978 319.0384 0001180 270.0425  90.0292 15.27576954127145
STARLINK-31426          
1 59249U 24049U   26164.15340063  .00000638  00000+0  32704-4 0  9995
2 59249  43.0084 324.6027 0000957 291.0507  69.0242 15.27575820126991
STARLINK-31407          
1 59250U 24049V   26165.12009502  .00000207  00000+0  17026-4 0  9997
2 59250  42.9986 307.7183 0000303 220.1926 139.8903 15.27573721127270
STARLINK-31393          
1 59252U 24049X   26164.86931115  .00000412  00000+0  24498-4 0  9992
2 59252  42.9999 305.8066 0000799 283.7698  76.3065 15.27571504127287
STARLINK-31425          
1 59253U 24049Y   26164.71233145 -.00000377  00000+0 -41719-5 0  9993
2 59253  43.0139 321.0709 0001029 273.0449  87.0285 15.27575423127088
STARLINK-31659          
1 59254U 24050A   26165.05401572 -.00006542  00000+0 -18259-3 0  9996
2 59254  53.1623  89.7592 0002135 135.5468 224.5706 15.34406719126500
STARLINK-31629          
1 59255U 24050B   26165.06567130  .00000325  00000+0  23090-4 0  9992
2 59255  53.1604  93.3735 0001340  93.2150 266.9004 15.30195645125302
STARLINK-31652          
1 59256U 24050C   26165.11333708 -.00001271  00000+0 -29188-4 0  9998
2 59256  53.1613  92.9660 0000999 112.0486 248.0621 15.31699153125317
STARLINK-31637          
1 59258U 24050E   26165.11198986  .00000932  00000+0  43629-4 0  9994
2 59258  53.1599  92.9564 0001391  95.7673 264.3486 15.30180281125313
STARLINK-31506          
1 59259U 24050F   26165.06251122 -.00001200  00000+0 -28399-4 0  9999
2 59259  53.1618  93.3558 0001595  93.2517 266.8666 15.30185030125303
STARLINK-31639          
1 59261U 24050H   26165.10869001 -.00001233  00000+0 -28004-4 0  9997
2 59261  53.1619  92.9352 0001123  93.6215 266.4915 15.31659243125317
STARLINK-31598          
1 59263U 24050K   26165.08391174  .00055799  00000+0  16652-2 0  9995
2 59263  53.1609  93.4691 0001040  94.7676 265.3445 15.34116510125304
STARLINK-31645          
1 59264U 24050L   26165.07305738  .00020603  00000+0  70606-3 0  9992
2 59264  53.1593  93.4219 0001180  80.2672 279.8462 15.30187990125309
STARLINK-31646          
1 59265U 24050M   26165.07939094 -.00000452  00000+0 -31340-5 0  9997
2 59265  53.1602  93.4567 0001346  85.3515 274.7639 15.30193637125308
STARLINK-31648          
1 59266U 24050N   26165.12148230  .00001850  00000+0  74605-4 0  9999
2 59266  53.1601  93.0169 0001248  74.1982 285.9156 15.30180563125310
STARLINK-31579          
1 59267U 24050P   26165.06988580 -.00004766  00000+0 -14887-3 0  9999
2 59267  53.1601  93.4003 0001290  65.8249 294.2886 15.30203712125306
STARLINK-31627          
1 59268U 24050Q   26165.08990626  .00243179  00000+0  72004-2 0  9991
2 59268  53.1596  93.5228 0000673  82.1473 277.9605 15.33407303125307
STARLINK-31609          
1 59269U 24050R   26165.07622331  .00002302  00000+0  89848-4 0  9993
2 59269  53.1586  93.4379 0001306 101.4849 258.6298 15.30194242125305
STARLINK-31616          
1 59270U 24050S   26165.08079539  .00403293  00000+0  12083-1 0  9990
2 59270  53.1595  93.4631 0001598  99.8559 260.2623 15.32322008125305
STARLINK-31630          
1 59271U 24050T   26165.04552971  .00000355  00000+0  21641-4 0  9998
2 59271  53.1618  79.7498 0001315  95.8231 264.2922 15.34390976125497
STARLINK-31623          
1 59272U 24050U   26165.09616744 -.00000978  00000+0 -20914-4 0  9998
2 59272  53.1612  92.8644 0001561 105.2759 254.8414 15.30187631125315
STARLINK-31595          
1 59273U 24050V   26165.12465744 -.00000602  00000+0 -82012-5 0  9997
2 59273  53.1604  93.0463 0001328  98.2177 261.8974 15.30190349125314
STARLINK-31463          
1 59296U 24056A   26164.96213169  .00000313  00000+0  20920-4 0  9997
2 59296  42.9992  43.0695 0001596 270.9661  89.1008 15.27572760125924
STARLINK-31487          
1 59297U 24056B   26164.95023176 -.00001142  00000+0 -32028-4 0  9999
2 59297  42.9839  47.2833 0001009 245.7173 114.3573 15.27569110125992
